[{"OBJECT_NAME":"ONEWEB-0627","OBJECT_ID":"2023-004AE","EPOCH":"2025-10-31T17:19:38.050752","MEAN_MOTION":13.17651214,"ECCENTRICITY":0.0001454,"INCLINATION":87.9117,"RA_OF_ASC_NODE":51.3131,"ARG_OF_PERICENTER":84.0615,"MEAN_ANOMALY":276.0682,"EPHEMERIS_TYPE":0,"CLASSIFICATION_TYPE":"U","NORAD_CAT_ID":55168,"ELEMENT_SET_NO":999,"REV_AT_EPOCH":13749,"BSTAR":9.219e-5,"MEAN_MOTION_DOT":4.9e-7,"MEAN_MOTION_DDOT":0},{"OBJECT_NAME":"ONEWEB-0628","OBJECT_ID":"2023-004AF","EPOCH":"2025-10-31T18:27:02.781216","MEAN_MOTION":13.12444545,"ECCENTRICITY":0.0001142,"INCLINATION":87.8965,"RA_OF_ASC_NODE":36.0247,"ARG_OF_PERICENTER":94.5224,"MEAN_ANOMALY":265.6035,"EPHEMERIS_TYPE":0,"CLASSIFICATION_TYPE":"U","NORAD_CAT_ID":55169,"ELEMENT_SET_NO":999,"REV_AT_EPOCH":13807,"BSTAR":0.0004413,"MEAN_MOTION_DOT":1.71e-6,"MEAN_MOTION_DDOT":0},{"OBJECT_NAME":"ONEWEB-0629","OBJECT_ID":"2023-004AG","EPOCH":"2025-10-31T18:33:44.848800","MEAN_MOTION":13.17649214,"ECCENTRICITY":0.000136,"INCLINATION":87.9115,"RA_OF_ASC_NODE":51.2989,"ARG_OF_PERICENTER":108.8969,"MEAN_ANOMALY":251.231,"EPHEMERIS_TYPE":0,"CLASSIFICATION_TYPE":"U","NORAD_CAT_ID":55170,"ELEMENT_SET_NO":999,"REV_AT_EPOCH":13750,"BSTAR":0.00045799,"MEAN_MOTION_DOT":1.91e-6,"MEAN_MOTION_DDOT":0},{"OBJECT_NAME":"ONEWEB-0631","OBJECT_ID":"2023-004AH","EPOCH":"2025-10-31T17:06:32.588352","MEAN_MOTION":13.18687247,"ECCENTRICITY":0.0002193,"INCLINATION":87.9225,"RA_OF_ASC_NODE":20.808,"ARG_OF_PERICENTER":87.8494,"MEAN_ANOMALY":272.2889,"EPHEMERIS_TYPE":0,"CLASSIFICATION_TYPE":"U","NORAD_CAT_ID":55171,"ELEMENT_SET_NO":999,"REV_AT_EPOCH":13956,"BSTAR":0.00025614,"MEAN_MOTION_DOT":1.14e-6,"MEAN_MOTION_DDOT":0},{"OBJECT_NAME":"ONEWEB-0709","OBJECT_ID":"2023-004AJ","EPOCH":"2025-10-31T18:31:24.248352","MEAN_MOTION":13.11420147,"ECCENTRICITY":0.0002593,"INCLINATION":87.8842,"RA_OF_ASC_NODE":66.575,"ARG_OF_PERICENTER":95.4467,"MEAN_ANOMALY":264.6957,"EPHEMERIS_TYPE":0,"CLASSIFICATION_TYPE":"U","NORAD_CAT_ID":55172,"ELEMENT_SET_NO":999,"REV_AT_EPOCH":13593,"BSTAR":-0.00028788,"MEAN_MOTION_DOT":-8.9e-7,"MEAN_MOTION_DDOT":0},{"OBJECT_NAME":"ONEWEB-0710","OBJECT_ID":"2023-004AK","EPOCH":"2025-10-31T18:54:24.829632","MEAN_MOTION":13.17650691,"ECCENTRICITY":0.0001609,"INCLINATION":87.912,"RA_OF_ASC_NODE":51.2908,"ARG_OF_PERICENTER":95.3971,"MEAN_ANOMALY":264.7344,"EPHEMERIS_TYPE":0,"CLASSIFICATION_TYPE":"U","NORAD_CAT_ID":55173,"ELEMENT_SET_NO":999,"REV_AT_EPOCH":13750,"BSTAR":0.00016786,"MEAN_MOTION_DOT":7.8e-7,"MEAN_MOTION_DDOT":0},{"OBJECT_NAME":"ONEWEB-0711","OBJECT_ID":"2023-004AL","EPOCH":"2025-10-31T14:10:08.679936","MEAN_MOTION":13.11413557,"ECCENTRICITY":0.0001232,"INCLINATION":87.8856,"RA_OF_ASC_NODE":66.5825,"ARG_OF_PERICENTER":73.8637,"MEAN_ANOMALY":286.2626,"EPHEMERIS_TYPE":0,"CLASSIFICATION_TYPE":"U","NORAD_CAT_ID":55174,"ELEMENT_SET_NO":999,"REV_AT_EPOCH":13587,"BSTAR":-0.0009365,"MEAN_MOTION_DOT":-3.19e-6,"MEAN_MOTION_DDOT":0},{"OBJECT_NAME":"ONEWEB-0713","OBJECT_ID":"2023-004AM","EPOCH":"2025-10-31T20:06:37.132128","MEAN_MOTION":13.11419346,"ECCENTRICITY":0.000146,"INCLINATION":87.8842,"RA_OF_ASC_NODE":66.5367,"ARG_OF_PERICENTER":90.4455,"MEAN_ANOMALY":269.684,"EPHEMERIS_TYPE":0,"CLASSIFICATION_TYPE":"U","NORAD_CAT_ID":55175,"ELEMENT_SET_NO":999,"REV_AT_EPOCH":13589,"BSTAR":-0.0010562,"MEAN_MOTION_DOT":-3.62e-6,"MEAN_MOTION_DDOT":0},{"OBJECT_NAME":"ONEWEB-0715","OBJECT_ID":"2023-004AN","EPOCH":"2025-10-31T19:59:18.086208","MEAN_MOTION":13.11417628,"ECCENTRICITY":0.0002257,"INCLINATION":87.8843,"RA_OF_ASC_NODE":66.5372,"ARG_OF_PERICENTER":86.9184,"MEAN_ANOMALY":273.2202,"EPHEMERIS_TYPE":0,"CLASSIFICATION_TYPE":"U","NORAD_CAT_ID":55176,"ELEMENT_SET_NO":999,"REV_AT_EPOCH":13593,"BSTAR":-0.0013593,"MEAN_MOTION_DOT":-4.69e-6,"MEAN_MOTION_DDOT":0},{"OBJECT_NAME":"ONEWEB-0716","OBJECT_ID":"2023-004AP","EPOCH":"2025-10-31T18:44:41.296992","MEAN_MOTION":13.17649727,"ECCENTRICITY":0.0001776,"INCLINATION":87.9132,"RA_OF_ASC_NODE":51.2927,"ARG_OF_PERICENTER":108.162,"MEAN_ANOMALY":251.9705,"EPHEMERIS_TYPE":0,"CLASSIFICATION_TYPE":"U","NORAD_CAT_ID":55177,"ELEMENT_SET_NO":999,"REV_AT_EPOCH":13750,"BSTAR":-6.0352e-5,"MEAN_MOTION_DOT":-1.1e-7,"MEAN_MOTION_DDOT":0},{"OBJECT_NAME":"ONEWEB-0717","OBJECT_ID":"2023-004AQ","EPOCH":"2025-10-31T20:09:44.227008","MEAN_MOTION":13.17649963,"ECCENTRICITY":0.0001498,"INCLINATION":87.9132,"RA_OF_ASC_NODE":51.2471,"ARG_OF_PERICENTER":78.9995,"MEAN_ANOMALY":281.1305,"EPHEMERIS_TYPE":0,"CLASSIFICATION_TYPE":"U","NORAD_CAT_ID":55178,"ELEMENT_SET_NO":999,"REV_AT_EPOCH":13756,"BSTAR":0.0015152,"MEAN_MOTION_DOT":6.01e-6,"MEAN_MOTION_DDOT":0},{"OBJECT_NAME":"ONEWEB-0719","OBJECT_ID":"2023-004AR","EPOCH":"2025-10-31T18:34:58.251648","MEAN_MOTION":13.17651572,"ECCENTRICITY":0.0001573,"INCLINATION":87.913,"RA_OF_ASC_NODE":51.2431,"ARG_OF_PERICENTER":108.3874,"MEAN_ANOMALY":251.7428,"EPHEMERIS_TYPE":0,"CLASSIFICATION_TYPE":"U","NORAD_CAT_ID":55179,"ELEMENT_SET_NO":999,"REV_AT_EPOCH":13750,"BSTAR":0.00020325,"MEAN_MOTION_DOT":9.2e-7,"MEAN_MOTION_DDOT":0},{"OBJECT_NAME":"ONEWEB-0530","OBJECT_ID":"2023-029A","EPOCH":"2025-10-31T14:35:29.749344","MEAN_MOTION":13.20770544,"ECCENTRICITY":0.0001477,"INCLINATION":87.9192,"RA_OF_ASC_NODE":320.0727,"ARG_OF_PERICENTER":80.2159,"MEAN_ANOMALY":279.9141,"EPHEMERIS_TYPE":0,"CLASSIFICATION_TYPE":"U","NORAD_CAT_ID":55796,"ELEMENT_SET_NO":999,"REV_AT_EPOCH":13097,"BSTAR":0.00038452,"MEAN_MOTION_DOT":1.69e-6,"MEAN_MOTION_DDOT":0},{"OBJECT_NAME":"ONEWEB-0534","OBJECT_ID":"2023-029B","EPOCH":"2025-10-31T14:17:19.013280","MEAN_MOTION":13.20770684,"ECCENTRICITY":0.0001872,"INCLINATION":87.9185,"RA_OF_ASC_NODE":320.0769,"ARG_OF_PERICENTER":96.6835,"MEAN_ANOMALY":263.4511,"EPHEMERIS_TYPE":0,"CLASSIFICATION_TYPE":"U","NORAD_CAT_ID":55797,"ELEMENT_SET_NO":999,"REV_AT_EPOCH":13097,"BSTAR":0.00021974,"MEAN_MOTION_DOT":1.02e-6,"MEAN_MOTION_DDOT":0},{"OBJECT_NAME":"ONEWEB-0556","OBJECT_ID":"2023-029C","EPOCH":"2025-10-31T18:04:34.744224","MEAN_MOTION":13.20770913,"ECCENTRICITY":0.0001292,"INCLINATION":87.9192,"RA_OF_ASC_NODE":320.0436,"ARG_OF_PERICENTER":110.9054,"MEAN_ANOMALY":249.2218,"EPHEMERIS_TYPE":0,"CLASSIFICATION_TYPE":"U","NORAD_CAT_ID":55798,"ELEMENT_SET_NO":999,"REV_AT_EPOCH":13099,"BSTAR":0.00035682,"MEAN_MOTION_DOT":1.58e-6,"MEAN_MOTION_DDOT":0},{"OBJECT_NAME":"ONEWEB-0562","OBJECT_ID":"2023-029D","EPOCH":"2025-10-31T14:08:12.831360","MEAN_MOTION":13.20772383,"ECCENTRICITY":9.67e-5,"INCLINATION":87.9188,"RA_OF_ASC_NODE":320.0604,"ARG_OF_PERICENTER":83.2901,"MEAN_ANOMALY":276.8342,"EPHEMERIS_TYPE":0,"CLASSIFICATION_TYPE":"U","NORAD_CAT_ID":55799,"ELEMENT_SET_NO":999,"REV_AT_EPOCH":13097,"BSTAR":8.5546e-6,"MEAN_MOTION_DOT":1.6e-7,"MEAN_MOTION_DDOT":0},{"OBJECT_NAME":"ONEWEB-0563","OBJECT_ID":"2023-029E","EPOCH":"2025-10-31T19:26:23.897184","MEAN_MOTION":13.20770428,"ECCENTRICITY":0.0001905,"INCLINATION":87.9195,"RA_OF_ASC_NODE":320.0415,"ARG_OF_PERICENTER":103.1125,"MEAN_ANOMALY":257.0221,"EPHEMERIS_TYPE":0,"CLASSIFICATION_TYPE":"U","NORAD_CAT_ID":55800,"ELEMENT_SET_NO":999,"REV_AT_EPOCH":13099,"BSTAR":2.6156e-5,"MEAN_MOTION_DOT":2.4e-7,"MEAN_MOTION_DDOT":0}]
