ONEWEB-0627             
1 55168U 23004AE  25304.72196818  .00000049  00000+0  92190-4 0  9997
2 55168  87.9117  51.3131 0001454  84.0615 276.0682 13.17651214137498
ONEWEB-0628             
1 55169U 23004AF  25304.76878219  .00000171  00000+0  44130-3 0  9990
2 55169  87.8965  36.0247 0001142  94.5224 265.6035 13.12444545138076
ONEWEB-0629             
1 55170U 23004AG  25304.77343575  .00000191  00000+0  45799-3 0  9999
2 55170  87.9115  51.2989 0001360 108.8969 251.2310 13.17649214137504
ONEWEB-0631             
1 55171U 23004AH  25304.71287718  .00000114  00000+0  25614-3 0  9999
2 55171  87.9225  20.8080 0002193  87.8494 272.2889 13.18687247139566
ONEWEB-0709             
1 55172U 23004AJ  25304.77180843 -.00000089  00000+0 -28788-3 0  9995
2 55172  87.8842  66.5750 0002593  95.4467 264.6957 13.11420147135936
ONEWEB-0710             
1 55173U 23004AK  25304.78778738  .00000078  00000+0  16786-3 0  9994
2 55173  87.9120  51.2908 0001609  95.3971 264.7344 13.17650691137500
ONEWEB-0711             
1 55174U 23004AL  25304.59037824 -.00000319  00000+0 -93650-3 0  9993
2 55174  87.8856  66.5825 0001232  73.8637 286.2626 13.11413557135877
ONEWEB-0713             
1 55175U 23004AM  25304.83792977 -.00000362  00000+0 -10562-2 0  9996
2 55175  87.8842  66.5367 0001460  90.4455 269.6840 13.11419346135897
ONEWEB-0715             
1 55176U 23004AN  25304.83284822 -.00000469  00000+0 -13593-2 0  9997
2 55176  87.8843  66.5372 0002257  86.9184 273.2202 13.11417628135938
ONEWEB-0716             
1 55177U 23004AP  25304.78103353 -.00000011  00000+0 -60352-4 0  9991
2 55177  87.9132  51.2927 0001776 108.1620 251.9705 13.17649727137504
ONEWEB-0717             
1 55178U 23004AQ  25304.84009522  .00000601  00000+0  15152-2 0  9991
2 55178  87.9132  51.2471 0001498  78.9995 281.1305 13.17649963137568
ONEWEB-0719             
1 55179U 23004AR  25304.77428532  .00000092  00000+0  20325-3 0  9993
2 55179  87.9130  51.2431 0001573 108.3874 251.7428 13.17651572137503
ONEWEB-0530             
1 55796U 23029A   25304.60798321  .00000169  00000+0  38452-3 0  9998
2 55796  87.9192 320.0727 0001477  80.2159 279.9141 13.20770544130971
ONEWEB-0534             
1 55797U 23029B   25304.59535895  .00000102  00000+0  21974-3 0  9990
2 55797  87.9185 320.0769 0001872  96.6835 263.4511 13.20770684130975
ONEWEB-0556             
1 55798U 23029C   25304.75317991  .00000158  00000+0  35682-3 0  9996
2 55798  87.9192 320.0436 0001292 110.9054 249.2218 13.20770913130997
ONEWEB-0562             
1 55799U 23029D   25304.58903740  .00000016  00000+0  85546-5 0  9990
2 55799  87.9188 320.0604 0000967  83.2901 276.8342 13.20772383130976
ONEWEB-0563             
1 55800U 23029E   25304.80999881  .00000024  00000+0  26156-4 0  9999
2 55800  87.9195 320.0415 0001905 103.1125 257.0221 13.20770428130997
